STARLINK-36307          
1 68306U 26057N   26095.16668981 -.01486900  00000+0 -82057-2 0  9993
2 68306  97.2793 218.8575 0001694  61.6922  98.9045 15.82264245  3562
STARLINK-36264          
1 68307U 26057P   26095.16668981 -.01427556  00000+0 -79230-2 0  9995
2 68307  97.2786 218.8608 0001832  66.0684 103.3882 15.82031138  3620
STARLINK-37138          
1 68308U 26057Q   26095.16668981 -.01439568  00000+0 -79729-2 0  9995
2 68308  97.2778 218.8609 0001817  59.9301 113.7116 15.82098513  3303
STARLINK-37149          
1 68309U 26057R   26095.16668981 -.01439621  00000+0 -79760-2 0  9991
2 68309  97.2771 218.8623 0001816  63.4547 114.4720 15.82091226  3419
STARLINK-37148          
1 68310U 26057S   26095.16668981 -.01387028  00000+0 -78371-2 0  9993
2 68310  97.2768 218.8665 0001830  68.8931 117.6477 15.82035777  3520
STARLINK-37140          
1 68311U 26057T   26095.16668981 -.01384605  00000+0 -78246-2 0  9993
2 68311  97.2771 218.8650 0001628  68.8124 113.4575 15.82029640  3679
STARLINK-36854          
1 68312U 26057U   26095.16668981 -.01437303  00000+0 -79745-2 0  9993
2 68312  97.2768 218.8693 0001896  67.2966 123.5007 15.82055358  3472
STARLINK-36815          
1 68313U 26057V   26095.16668981 -.01339959  00000+0 -75604-2 0  9992
2 68313  97.2767 218.8706 0001616  65.4405 129.7198 15.81961935  3470
STARLINK-37155          
1 68314U 26057W   26095.16668981 -.01190563  00000+0 -66756-2 0  9997
2 68314  97.2754 218.8738 0001747  57.7894 146.0949 15.81763266  3522
STARLINK-37150          
1 68315U 26057X   26095.16668981 -.01262349  00000+0 -71057-2 0  9990
2 68315  97.2760 218.8726 0001668  70.9498 128.6088 15.81838311  3520
STARLINK-37154          
1 68316U 26057Y   26095.16668981 -.00931307  00000+0 -52381-2 0  9996
2 68316  97.2745 218.8768 0001675  49.6325 163.0110 15.81492488  3429
STARLINK-37139          
1 68317U 26057Z   26095.16668981 -.01083772  00000+0 -61639-2 0  9998
2 68317  97.2748 218.8751 0001997  59.3220 148.9426 15.81641073  3275
