CCSDS_OMM_VERS = 2.0
CREATION_DATE  = 
ORIGINATOR     = 

OBJECT_NAME    = STARLINK-36307
OBJECT_ID      = 2026-057N
CENTER_NAME    = EARTH
REF_FRAME      = TEME
TIME_SYSTEM    = UTC
MEAN_ELEMENT_THEORY = SGP/SGP4

EPOCH          = 2026-04-05T04:00:01.999584
MEAN_MOTION    = 15.82264245
ECCENTRICITY   = .00016946
INCLINATION    = 97.2793
RA_OF_ASC_NODE = 218.8575
ARG_OF_PERICENTER = 61.6922
MEAN_ANOMALY   = 98.9045

EPHEMERIS_TYPE = 0
CLASSIFICATION_TYPE = U
NORAD_CAT_ID   = 68306
ELEMENT_SET_NO = 999
REV_AT_EPOCH   = 356
BSTAR          = -.82057031E-2
MEAN_MOTION_DOT = -.14869E-1
MEAN_MOTION_DDOT = 0

CCSDS_OMM_VERS = 2.0
CREATION_DATE  = 
ORIGINATOR     = 

OBJECT_NAME    = STARLINK-36264
OBJECT_ID      = 2026-057P
CENTER_NAME    = EARTH
REF_FRAME      = TEME
TIME_SYSTEM    = UTC
MEAN_ELEMENT_THEORY = SGP/SGP4

EPOCH          = 2026-04-05T04:00:01.999584
MEAN_MOTION    = 15.82031138
ECCENTRICITY   = .00018323
INCLINATION    = 97.2786
RA_OF_ASC_NODE = 218.8608
ARG_OF_PERICENTER = 66.0684
MEAN_ANOMALY   = 103.3882

EPHEMERIS_TYPE = 0
CLASSIFICATION_TYPE = U
NORAD_CAT_ID   = 68307
ELEMENT_SET_NO = 999
REV_AT_EPOCH   = 362
BSTAR          = -.79230014E-2
MEAN_MOTION_DOT = -.1427556E-1
MEAN_MOTION_DDOT = 0

CCSDS_OMM_VERS = 2.0
CREATION_DATE  = 
ORIGINATOR     = 

OBJECT_NAME    = STARLINK-37138
OBJECT_ID      = 2026-057Q
CENTER_NAME    = EARTH
REF_FRAME      = TEME
TIME_SYSTEM    = UTC
MEAN_ELEMENT_THEORY = SGP/SGP4

EPOCH          = 2026-04-05T04:00:01.999584
MEAN_MOTION    = 15.82098513
ECCENTRICITY   = .00018179
INCLINATION    = 97.2778
RA_OF_ASC_NODE = 218.8609
ARG_OF_PERICENTER = 59.9301
MEAN_ANOMALY   = 113.7116

EPHEMERIS_TYPE = 0
CLASSIFICATION_TYPE = U
NORAD_CAT_ID   = 68308
ELEMENT_SET_NO = 999
REV_AT_EPOCH   = 330
BSTAR          = -.79728923E-2
MEAN_MOTION_DOT = -.1439568E-1
MEAN_MOTION_DDOT = 0

CCSDS_OMM_VERS = 2.0
CREATION_DATE  = 
ORIGINATOR     = 

OBJECT_NAME    = STARLINK-37149
OBJECT_ID      = 2026-057R
CENTER_NAME    = EARTH
REF_FRAME      = TEME
TIME_SYSTEM    = UTC
MEAN_ELEMENT_THEORY = SGP/SGP4

EPOCH          = 2026-04-05T04:00:01.999584
MEAN_MOTION    = 15.82091226
ECCENTRICITY   = .00018165
INCLINATION    = 97.2771
RA_OF_ASC_NODE = 218.8623
ARG_OF_PERICENTER = 63.4547
MEAN_ANOMALY   = 114.4720

EPHEMERIS_TYPE = 0
CLASSIFICATION_TYPE = U
NORAD_CAT_ID   = 68309
ELEMENT_SET_NO = 999
REV_AT_EPOCH   = 341
BSTAR          = -.79759514E-2
MEAN_MOTION_DOT = -.1439621E-1
MEAN_MOTION_DDOT = 0

CCSDS_OMM_VERS = 2.0
CREATION_DATE  = 
ORIGINATOR     = 

OBJECT_NAME    = STARLINK-37148
OBJECT_ID      = 2026-057S
CENTER_NAME    = EARTH
REF_FRAME      = TEME
TIME_SYSTEM    = UTC
MEAN_ELEMENT_THEORY = SGP/SGP4

EPOCH          = 2026-04-05T04:00:01.999584
MEAN_MOTION    = 15.82035777
ECCENTRICITY   = .00018302
INCLINATION    = 97.2768
RA_OF_ASC_NODE = 218.8665
ARG_OF_PERICENTER = 68.8931
MEAN_ANOMALY   = 117.6477

EPHEMERIS_TYPE = 0
CLASSIFICATION_TYPE = U
NORAD_CAT_ID   = 68310
ELEMENT_SET_NO = 999
REV_AT_EPOCH   = 352
BSTAR          = -.78370525E-2
MEAN_MOTION_DOT = -.1387028E-1
MEAN_MOTION_DDOT = 0

CCSDS_OMM_VERS = 2.0
CREATION_DATE  = 
ORIGINATOR     = 

OBJECT_NAME    = STARLINK-37140
OBJECT_ID      = 2026-057T
CENTER_NAME    = EARTH
REF_FRAME      = TEME
TIME_SYSTEM    = UTC
MEAN_ELEMENT_THEORY = SGP/SGP4

EPOCH          = 2026-04-05T04:00:01.999584
MEAN_MOTION    = 15.82029640
ECCENTRICITY   = .00016288
INCLINATION    = 97.2771
RA_OF_ASC_NODE = 218.8650
ARG_OF_PERICENTER = 68.8124
MEAN_ANOMALY   = 113.4575

EPHEMERIS_TYPE = 0
CLASSIFICATION_TYPE = U
NORAD_CAT_ID   = 68311
ELEMENT_SET_NO = 999
REV_AT_EPOCH   = 367
BSTAR          = -.78245663E-2
MEAN_MOTION_DOT = -.1384605E-1
MEAN_MOTION_DDOT = 0

CCSDS_OMM_VERS = 2.0
CREATION_DATE  = 
ORIGINATOR     = 

OBJECT_NAME    = STARLINK-36854
OBJECT_ID      = 2026-057U
CENTER_NAME    = EARTH
REF_FRAME      = TEME
TIME_SYSTEM    = UTC
MEAN_ELEMENT_THEORY = SGP/SGP4

EPOCH          = 2026-04-05T04:00:01.999584
MEAN_MOTION    = 15.82055358
ECCENTRICITY   = .00018962
INCLINATION    = 97.2768
RA_OF_ASC_NODE = 218.8693
ARG_OF_PERICENTER = 67.2966
MEAN_ANOMALY   = 123.5007

EPHEMERIS_TYPE = 0
CLASSIFICATION_TYPE = U
NORAD_CAT_ID   = 68312
ELEMENT_SET_NO = 999
REV_AT_EPOCH   = 347
BSTAR          = -.79745273E-2
MEAN_MOTION_DOT = -.1437303E-1
MEAN_MOTION_DDOT = 0

CCSDS_OMM_VERS = 2.0
CREATION_DATE  = 
ORIGINATOR     = 

OBJECT_NAME    = STARLINK-36815
OBJECT_ID      = 2026-057V
CENTER_NAME    = EARTH
REF_FRAME      = TEME
TIME_SYSTEM    = UTC
MEAN_ELEMENT_THEORY = SGP/SGP4

EPOCH          = 2026-04-05T04:00:01.999584
MEAN_MOTION    = 15.81961935
ECCENTRICITY   = .0001616
INCLINATION    = 97.2767
RA_OF_ASC_NODE = 218.8706
ARG_OF_PERICENTER = 65.4405
MEAN_ANOMALY   = 129.7198

EPHEMERIS_TYPE = 0
CLASSIFICATION_TYPE = U
NORAD_CAT_ID   = 68313
ELEMENT_SET_NO = 999
REV_AT_EPOCH   = 347
BSTAR          = -.75603943E-2
MEAN_MOTION_DOT = -.1339959E-1
MEAN_MOTION_DDOT = 0

CCSDS_OMM_VERS = 2.0
CREATION_DATE  = 
ORIGINATOR     = 

OBJECT_NAME    = STARLINK-37155
OBJECT_ID      = 2026-057W
CENTER_NAME    = EARTH
REF_FRAME      = TEME
TIME_SYSTEM    = UTC
MEAN_ELEMENT_THEORY = SGP/SGP4

EPOCH          = 2026-04-05T04:00:01.999584
MEAN_MOTION    = 15.81763266
ECCENTRICITY   = .00017477
INCLINATION    = 97.2754
RA_OF_ASC_NODE = 218.8738
ARG_OF_PERICENTER = 57.7894
MEAN_ANOMALY   = 146.0949

EPHEMERIS_TYPE = 0
CLASSIFICATION_TYPE = U
NORAD_CAT_ID   = 68314
ELEMENT_SET_NO = 999
REV_AT_EPOCH   = 352
BSTAR          = -.66756217E-2
MEAN_MOTION_DOT = -.1190563E-1
MEAN_MOTION_DDOT = 0

CCSDS_OMM_VERS = 2.0
CREATION_DATE  = 
ORIGINATOR     = 

OBJECT_NAME    = STARLINK-37150
OBJECT_ID      = 2026-057X
CENTER_NAME    = EARTH
REF_FRAME      = TEME
TIME_SYSTEM    = UTC
MEAN_ELEMENT_THEORY = SGP/SGP4

EPOCH          = 2026-04-05T04:00:01.999584
MEAN_MOTION    = 15.81838311
ECCENTRICITY   = .00016682
INCLINATION    = 97.2760
RA_OF_ASC_NODE = 218.8726
ARG_OF_PERICENTER = 70.9498
MEAN_ANOMALY   = 128.6088

EPHEMERIS_TYPE = 0
CLASSIFICATION_TYPE = U
NORAD_CAT_ID   = 68315
ELEMENT_SET_NO = 999
REV_AT_EPOCH   = 352
BSTAR          = -.7105741E-2
MEAN_MOTION_DOT = -.1262349E-1
MEAN_MOTION_DDOT = 0

CCSDS_OMM_VERS = 2.0
CREATION_DATE  = 
ORIGINATOR     = 

OBJECT_NAME    = STARLINK-37154
OBJECT_ID      = 2026-057Y
CENTER_NAME    = EARTH
REF_FRAME      = TEME
TIME_SYSTEM    = UTC
MEAN_ELEMENT_THEORY = SGP/SGP4

EPOCH          = 2026-04-05T04:00:01.999584
MEAN_MOTION    = 15.81492488
ECCENTRICITY   = .00016752
INCLINATION    = 97.2745
RA_OF_ASC_NODE = 218.8768
ARG_OF_PERICENTER = 49.6325
MEAN_ANOMALY   = 163.0110

EPHEMERIS_TYPE = 0
CLASSIFICATION_TYPE = U
NORAD_CAT_ID   = 68316
ELEMENT_SET_NO = 999
REV_AT_EPOCH   = 342
BSTAR          = -.52380806E-2
MEAN_MOTION_DOT = -.931307E-2
MEAN_MOTION_DDOT = 0

CCSDS_OMM_VERS = 2.0
CREATION_DATE  = 
ORIGINATOR     = 

OBJECT_NAME    = STARLINK-37139
OBJECT_ID      = 2026-057Z
CENTER_NAME    = EARTH
REF_FRAME      = TEME
TIME_SYSTEM    = UTC
MEAN_ELEMENT_THEORY = SGP/SGP4

EPOCH          = 2026-04-05T04:00:01.999584
MEAN_MOTION    = 15.81641073
ECCENTRICITY   = .00019972
INCLINATION    = 97.2748
RA_OF_ASC_NODE = 218.8751
ARG_OF_PERICENTER = 59.3220
MEAN_ANOMALY   = 148.9426

EPHEMERIS_TYPE = 0
CLASSIFICATION_TYPE = U
NORAD_CAT_ID   = 68317
ELEMENT_SET_NO = 999
REV_AT_EPOCH   = 327
BSTAR          = -.61638593E-2
MEAN_MOTION_DOT = -.1083772E-1
MEAN_MOTION_DDOT = 0

